{
  "type": "FeatureCollection",
  "features": [
    {
      "type": "Feature",
      "properties": {
        "norad_id": 30674,
        "name": "FENGYUN 1C DEB",
        "group": "fengyun-1c-debris",
        "lat": 76.4053027302428,
        "lon": 112.42472854244397,
        "alt_km": 586.2233376552776,
        "timestamp": "2025-12-15T19:00:45.634474+00:00",
        "meta_object_name": "FENGYUN 1C DEB",
        "meta_object_id": "1999-025AQG",
        "meta_epoch": "2025-12-14T10:33:18.402048",
        "meta_mean_motion": 14.96011699,
        "meta_eccentricity": 0.00254857,
        "meta_inclination": 98.9389,
        "meta_ra_of_asc_node": 151.4898,
        "meta_arg_of_pericenter": 296.5007,
        "meta_mean_anomaly": 63.3598,
        "meta_ephemeris_type": 0,
        "meta_classification_type": "U",
        "meta_norad_cat_id": 30674,
        "meta_element_set_no": 999,
        "meta_rev_at_epoch": 97377,
        "meta_bstar": 0.0074993761,
        "meta_mean_motion_dot": 0.00085606,
        "meta_mean_motion_ddot": 0,
        "tle_line1": "1 30674U 99025AQG 25348.43979632  .00085606  00000+0  74994-2 0  9999",
        "tle_line2": "2 30674  98.9389 151.4898 0025485 296.5007  63.3598 14.96011699973770"
      },
      "geometry": {
        "type": "Point",
        "coordinates": [
          112.42472854244397,
          76.4053027302428
        ]
      }
    },
    {
      "type": "Feature",
      "properties": {
        "norad_id": 30675,
        "name": "FENGYUN 1C DEB",
        "group": "fengyun-1c-debris",
        "lat": 63.108210943009404,
        "lon": -93.38989525213188,
        "alt_km": 766.5001854863094,
        "timestamp": "2025-12-15T19:00:45.634486+00:00",
        "meta_object_name": "FENGYUN 1C DEB",
        "meta_object_id": "1999-025AQH",
        "meta_epoch": "2025-12-14T16:18:07.396128",
        "meta_mean_motion": 14.27423033,
        "meta_eccentricity": 0.00540593,
        "meta_inclination": 98.7541,
        "meta_ra_of_asc_node": 67.8081,
        "meta_arg_of_pericenter": 163.519,
        "meta_mean_anomaly": 356.5161,
        "meta_ephemeris_type": 0,
        "meta_classification_type": "U",
        "meta_norad_cat_id": 30675,
        "meta_element_set_no": 999,
        "meta_rev_at_epoch": 96919,
        "meta_bstar": 0.0015745109,
        "meta_mean_motion_dot": 3.88e-05,
        "meta_mean_motion_ddot": 0,
        "tle_line1": "1 30675U 99025AQH 25348.67925227  .00003880  00000+0  15745-2 0  9990",
        "tle_line2": "2 30675  98.7541  67.8081 0054059 163.5190 356.5161 14.27423033969195"
      },
      "geometry": {
        "type": "Point",
        "coordinates": [
          -93.38989525213188,
          63.108210943009404
        ]
      }
    },
    {
      "type": "Feature",
      "properties": {
        "norad_id": 30676,
        "name": "FENGYUN 1C DEB",
        "group": "fengyun-1c-debris",
        "lat": -24.300381723015633,
        "lon": -8.469748125644958,
        "alt_km": 1324.7269503270318,
        "timestamp": "2025-12-15T19:00:45.634499+00:00",
        "meta_object_name": "FENGYUN 1C DEB",
        "meta_object_id": "1999-025AQJ",
        "meta_epoch": "2025-12-12T06:09:12.900384",
        "meta_mean_motion": 13.73909389,
        "meta_eccentricity": 0.04722694,
        "meta_inclination": 98.2667,
        "meta_ra_of_asc_node": 172.2213,
        "meta_arg_of_pericenter": 49.6374,
        "meta_mean_anomaly": 314.5031,
        "meta_ephemeris_type": 0,
        "meta_classification_type": "U",
        "meta_norad_cat_id": 30676,
        "meta_element_set_no": 999,
        "meta_rev_at_epoch": 93917,
        "meta_bstar": 0.001130987,
        "meta_mean_motion_dot": 2.353e-05,
        "meta_mean_motion_ddot": 0,
        "tle_line1": "1 30676U 99025AQJ 25346.25639931  .00002353  00000+0  11310-2 0  9995",
        "tle_line2": "2 30676  98.2667 172.2213 0472269  49.6374 314.5031 13.73909389939171"
      },
      "geometry": {
        "type": "Point",
        "coordinates": [
          -8.469748125644958,
          -24.300381723015633
        ]
      }
    },
    {
      "type": "Feature",
      "properties": {
        "norad_id": 30677,
        "name": "FENGYUN 1C DEB",
        "group": "fengyun-1c-debris",
        "lat": -57.79234624019289,
        "lon": -158.54939530390195,
        "alt_km": 737.2797800500275,
        "timestamp": "2025-12-15T19:00:45.634510+00:00",
        "meta_object_name": "FENGYUN 1C DEB",
        "meta_object_id": "1999-025AQK",
        "meta_epoch": "2025-12-13T14:44:25.302336",
        "meta_mean_motion": 14.38155703,
        "meta_eccentricity": 0.00662336,
        "meta_inclination": 98.2548,
        "meta_ra_of_asc_node": 32.6815,
        "meta_arg_of_pericenter": 201.5022,
        "meta_mean_anomaly": 286.7749,
        "meta_ephemeris_type": 0,
        "meta_classification_type": "U",
        "meta_norad_cat_id": 30677,
        "meta_element_set_no": 999,
        "meta_rev_at_epoch": 97992,
        "meta_bstar": 0.0015044836,
        "meta_mean_motion_dot": 4.643e-05,
        "meta_mean_motion_ddot": 0,
        "tle_line1": "1 30677U 99025AQK 25347.61418174  .00004643  00000+0  15045-2 0  9994",
        "tle_line2": "2 30677  98.2548  32.6815 0066233 201.5022 286.7749 14.38155703979924"
      },
      "geometry": {
        "type": "Point",
        "coordinates": [
          -158.54939530390195,
          -57.79234624019289
        ]
      }
    },
    {
      "type": "Feature",
      "properties": {
        "norad_id": 30678,
        "name": "FENGYUN 1C DEB",
        "group": "fengyun-1c-debris",
        "lat": -64.60495848165486,
        "lon": -29.660992087132357,
        "alt_km": 802.1599014011208,
        "timestamp": "2025-12-15T19:00:45.634522+00:00",
        "meta_object_name": "FENGYUN 1C DEB",
        "meta_object_id": "1999-025AQL",
        "meta_epoch": "2025-12-14T20:00:08.700192",
        "meta_mean_motion": 14.24199471,
        "meta_eccentricity": 0.00714376,
        "meta_inclination": 99.0796,
        "meta_ra_of_asc_node": 309.664,
        "meta_arg_of_pericenter": 224.5721,
        "meta_mean_anomaly": 195.5716,
        "meta_ephemeris_type": 0,
        "meta_classification_type": "U",
        "meta_norad_cat_id": 30678,
        "meta_element_set_no": 999,
        "meta_rev_at_epoch": 95905,
        "meta_bstar": 0.0021386431,
        "meta_mean_motion_dot": 5.017e-05,
        "meta_mean_motion_ddot": 0,
        "tle_line1": "1 30678U 99025AQL 25348.83343403  .00005017  00000+0  21386-2 0  9993",
        "tle_line2": "2 30678  99.0796 309.6640 0071437 224.5721 195.5716 14.24199471959053"
      },
      "geometry": {
        "type": "Point",
        "coordinates": [
          -29.660992087132357,
          -64.60495848165486
        ]
      }
    },
    {
      "type": "Feature",
      "properties": {
        "norad_id": 30679,
        "name": "FENGYUN 1C DEB",
        "group": "fengyun-1c-debris",
        "lat": -71.54059073880799,
        "lon": 71.20093343001524,
        "alt_km": 1074.3210281410566,
        "timestamp": "2025-12-15T19:00:45.634532+00:00",
        "meta_object_name": "FENGYUN 1C DEB",
        "meta_object_id": "1999-025AQM",
        "meta_epoch": "2025-12-14T19:19:41.966976",
        "meta_mean_motion": 13.7971798,
        "meta_eccentricity": 0.01715756,
        "meta_inclination": 99.3814,
        "meta_ra_of_asc_node": 40.5369,
        "meta_arg_of_pericenter": 73.3702,
        "meta_mean_anomaly": 354.7204,
        "meta_ephemeris_type": 0,
        "meta_classification_type": "U",
        "meta_norad_cat_id": 30679,
        "meta_element_set_no": 999,
        "meta_rev_at_epoch": 94548,
        "meta_bstar": 0.00071163919,
        "meta_mean_motion_dot": 7.78e-06,
        "meta_mean_motion_ddot": 0,
        "tle_line1": "1 30679U 99025AQM 25348.80534684  .00000778  00000+0  71164-3 0  9993",
        "tle_line2": "2 30679  99.3814  40.5369 0171575  73.3702 354.7204 13.79717980945483"
      },
      "geometry": {
        "type": "Point",
        "coordinates": [
          71.20093343001524,
          -71.54059073880799
        ]
      }
    },
    {
      "type": "Feature",
      "properties": {
        "norad_id": 30680,
        "name": "FENGYUN 1C DEB",
        "group": "fengyun-1c-debris",
        "lat": -72.12951437111269,
        "lon": -179.43259230555762,
        "alt_km": 1068.909384485859,
        "timestamp": "2025-12-15T19:00:45.634542+00:00",
        "meta_object_name": "FENGYUN 1C DEB",
        "meta_object_id": "1999-025AQN",
        "meta_epoch": "2025-12-14T18:45:58.424544",
        "meta_mean_motion": 13.56127335,
        "meta_eccentricity": 0.03395254,
        "meta_inclination": 99.6305,
        "meta_ra_of_asc_node": 31.3544,
        "meta_arg_of_pericenter": 162.7442,
        "meta_mean_anomaly": 198.5578,
        "meta_ephemeris_type": 0,
        "meta_classification_type": "U",
        "meta_norad_cat_id": 30680,
        "meta_element_set_no": 999,
        "meta_rev_at_epoch": 92281,
        "meta_bstar": 0.0034877443,
        "meta_mean_motion_dot": 3.505e-05,
        "meta_mean_motion_ddot": 0,
        "tle_line1": "1 30680U 99025AQN 25348.78192621  .00003505  00000+0  34877-2 0  9993",
        "tle_line2": "2 30680  99.6305  31.3544 0339525 162.7442 198.5578 13.56127335922815"
      },
      "geometry": {
        "type": "Point",
        "coordinates": [
          -179.43259230555762,
          -72.12951437111269
        ]
      }
    }
  ]
}